GPS BIIR-2  (PRN 13)    
1 24876U 97035A   24269.99113714  .00000004  00000+0  00000+0 0  9991
2 24876  55.7010 123.1897 0084577  54.2590 306.6060  2.00561263199335
GPS BIIR-4  (PRN 20)    
1 26360U 00025A   24271.15274620 -.00000064  00000+0  00000+0 0  9996
2 26360  54.7490  44.7320 0039292 217.5919 349.7803  2.00571603178663
GPS BIIR-5  (PRN 22)    
1 26407U 00040A   24271.20055212 -.00000002  00000+0  00000+0 0  9997
2 26407  55.0302 240.1242 0142472 295.9722 144.6776  2.00561613177348
GPS BIIR-8  (PRN 16)    
1 27663U 03005A   24270.91005899  .00000002  00000+0  00000+0 0  9998
2 27663  55.0680 239.9469 0138193  47.7597 322.9406  2.00569007158713
GPS BIIR-9  (PRN 21)    
1 27704U 03010A   24270.62742998 -.00000114  00000+0  00000+0 0  9991
2 27704  55.0756 349.6981 0254962 329.9546  52.2857  2.00566649157501
GPS BIIR-11 (PRN 19)    
1 28190U 04009A   24270.68425795 -.00000025  00000+0  00000+0 0  9990
2 28190  55.3670 300.9815 0098895 153.2397 208.3051  2.00556243150342
GPS BIIR-13 (PRN 02)    
1 28474U 04045A   24271.19726010 -.00000113  00000+0  00000+0 0  9994
2 28474  55.4051 350.1286 0164107 294.9892 123.6152  2.00562330145825
GPS BIIRM-1 (PRN 17)    
1 28874U 05038A   24270.64285625 -.00000020  00000+0  00000+0 0  9999
2 28874  55.4125 298.4478 0137349 285.6463  68.7459  2.00578533139225
GPS BIIRM-2 (PRN 31)    
1 29486U 06042A   24270.80380789 -.00000046  00000+0  00000+0 0  9998
2 29486  54.6759 176.2629 0105218  41.1738 329.8773  2.00550101131795
GPS BIIRM-3 (PRN 12)    
1 29601U 06052A   24271.20540008 -.00000003  00000+0  00000+0 0  9998
2 29601  55.1014 238.9201 0084757  83.6562 277.2884  2.00573262130854
GPS BIIRM-4 (PRN 15)    
1 32260U 07047A   24270.51429127  .00000015  00000+0  00000+0 0  9991
2 32260  53.6618 106.0508 0159033  77.6697 284.1775  2.00559290124202
GPS BIIRM-5 (PRN 29)    
1 32384U 07062A   24270.57496222 -.00000021  00000+0  00000+0 0  9999
2 32384  55.5541 299.3278 0028209 157.5060  15.8118  2.00552948122905
GPS BIIRM-6 (PRN 07)    
1 32711U 08012A   24270.92823474 -.00000046  00000+0  00000+0 0  9998
2 32711  54.4499 174.9955 0189485 240.0386 118.1033  2.00570989121156
GPS BIIRM-8 (PRN 05)    
1 35752U 09043A   24271.22543826 -.00000045  00000+0  00000+0 0  9994
2 35752  55.7600  52.2316 0056320  75.6390 153.1263  2.00563472110745
GPS BIIF-1  (PRN 25)    
1 36585U 10022A   24270.48687234  .00000000  00000+0  00000+0 0  9997
2 36585  54.4155 233.9102 0116031  62.0741 110.9244  2.00556606104988
GPS BIIF-3  (PRN 24)    
1 38833U 12053A   24271.11059214 -.00000043  00000+0  00000+0 0  9991
2 38833  53.5177 169.3058 0157949  57.5528 304.0090  2.00560190 87738
GPS BIIF-4  (PRN 27)    
1 39166U 13023A   24270.47418035 -.00000014  00000+0  00000+0 0  9995
2 39166  55.0260 294.4945 0124549  44.9638 316.0872  2.00562510 83279
GPS BIIF-5  (PRN 30)    
1 39533U 14008A   24269.97114556 -.00000044  00000+0  00000+0 0  9994
2 39533  53.5994 174.9644 0073166 221.0968 138.3854  2.00574238 77069
GPS BIIF-6  (PRN 06)    
1 39741U 14026A   24270.75187522 -.00000116  00000+0  00000+0 0  9996
2 39741  56.7001 355.9348 0032366 313.1649  46.6001  2.00561022 75927
GPS BIIF-7  (PRN 09)    
1 40105U 14045A   24270.84160613  .00000020  00000+0  00000+0 0  9998
2 40105  54.9756 113.5450 0029273 115.6304 244.7497  2.00573263 73476
GPS BIIF-8  (PRN 03)    
1 40294U 14068A   24270.21962159 -.00000035  00000+0  00000+0 0  9995
2 40294  56.5087  55.3038 0055090  65.5517 295.0290  2.00566296 72590
GPS BIIF-9  (PRN 26)    
1 40534U 15013A   24270.84812194 -.00000012  00000+0  00000+0 0  9990
2 40534  53.3131 230.1848 0091508  30.7269 329.7807  2.00559471 69228
GPS BIIF-10 (PRN 08)    
1 40730U 15033A   24270.01270471 -.00000012  00000+0  00000+0 0  9995
2 40730  54.5086 292.9364 0096087  19.8085 340.6081  2.00561863 67376
GPS BIIF-11 (PRN 10)    
1 41019U 15062A   24270.57171233 -.00000036  00000+0  00000+0 0  9991
2 41019  56.4891  55.1442 0098801 224.7511 134.4564  2.00562594 65224
GPS BIIF-12 (PRN 32)    
1 41328U 16007A   24270.15458740  .00000012  00000+0  00000+0 0  9992
2 41328  55.1678 114.4374 0080602 238.4366 120.8483  2.00556926 63228
GPS BIII-1  (PRN 04)    
1 43873U 18109A   24270.54966833  .00000015  00000+0  00000+0 0  9997
2 43873  55.3364 117.0204 0030724 191.8709 344.5301  2.00560161 42466
GPS BIII-2  (PRN 18)    
1 44506U 19056A   24270.67325021 -.00000117  00000+0  00000+0 0  9999
2 44506  55.8329 356.0711 0047565 191.4337 339.6649  2.00556923 37463
GPS BIII-3  (PRN 23)    
1 45854U 20041A   24270.50683414 -.00000040  00000+0  00000+0 0  9992
2 45854  56.2102  53.4518 0047817 194.1331 152.4369  2.00571321 31420
GPS BIII-4  (PRN 14)    
1 46826U 20078A   24270.29686588  .00000004  00000+0  00000+0 0  9992
2 46826  54.1464 236.2998 0049753 198.9543 331.4071  2.00560393 28892
GPS BIII-5  (PRN 11)    
1 48859U 21054A   24271.16303670 -.00000118  00000+0  00000+0 0  9997
2 48859  55.3601 357.6564 0018790 221.8183  36.0241  2.00552188 24151
GPS BIII-6  (PRN 28)    
1 55268U 23009A   24270.37712263 -.00000044  00000+0  00000+0 0  9993
2 55268  55.0842 173.2016 0001856  67.3608  28.1190  2.00557542 12635
